[Satellite]
VERSION=1.1
NAME=GENESIS 1
NICKNAME=GENESIS 1
TLE1=1 29252U 06029A   20157.75050126  .00000358  00000-0  27448-4 0  9993
TLE2=2 29252  64.5213 339.8601 0013002 179.3289 180.7855 15.18125639766406
STATUS=0
